start=new Date('2023-02-17T00:00:00.000Z').valueOf();
sats=[{"FILE":"3799178","REF_FRAME":"TEME","BSTAR":"0.00313410000000","MEAN_MOTION_DDOT":"0.0000000000000","PERIAPSIS":"546.153","SITE":"AFETR","COUNTRY_CODE":"US","MEAN_MOTION":"15.06451373","GP_ID":"225683889","CENTER_NAME":"EARTH","EPOCH":"2023-02-16T17:31:38.873856","MEAN_ANOMALY":"294.4407","CLASSIFICATION_TYPE":"U","ECCENTRICITY":"0.00013040","RA_OF_ASC_NODE":"155.8446","SEMIMAJOR_AXIS":"6925.191","NORAD_CAT_ID":"48448","MEAN_ELEMENT_THEORY":"SGP4","ARG_OF_PERICENTER":"65.6718","INCLINATION":"53.0537","EPHEMERIS_TYPE":"0","APOAPSIS":"547.959","PERIOD":"95.589","TLE_LINE1":"1 48448U 21040W   23047.73031104  .00046777  00000-0  31341-2 0  9995","LAUNCH_DATE":"2021-05-09","OBJECT_ID":"2021-040W","REV_AT_EPOCH":"9827","OBJECT_NAME":"STARLINK-2632","TLE_LINE2":"2 48448  53.0537 155.8446 0001304  65.6718 294.4407 15.06451373 98278","MEAN_MOTION_DOT":"0.00046777","OBJECT_TYPE":"PAYLOAD","DECAY_DATE":null,"TIME_SYSTEM":"UTC","ELEMENT_SET_NO":"999","RCS_SIZE":"LARGE"},{"TLE_LINE1":"1 48449U 21040X   23047.56907813  .00047787  00000-0  32011-2 0  9993","LAUNCH_DATE":"2021-05-09","EPHEMERIS_TYPE":"0","APOAPSIS":"547.853","PERIOD":"95.589","ARG_OF_PERICENTER":"103.6841","INCLINATION":"53.0531","MEAN_ELEMENT_THEORY":"SGP4","SEMIMAJOR_AXIS":"6925.197","NORAD_CAT_ID":"48449","TIME_SYSTEM":"UTC","ELEMENT_SET_NO":"999","RCS_SIZE":"LARGE","OBJECT_TYPE":"PAYLOAD","DECAY_DATE":null,"TLE_LINE2":"2 48449  53.0531 156.5673 0001142 103.6841 256.4275 15.06449434 98257","MEAN_MOTION_DOT":"0.00047787","OBJECT_ID":"2021-040X","REV_AT_EPOCH":"9825","OBJECT_NAME":"STARLINK-2655","PERIAPSIS":"546.271","SITE":"AFETR","REF_FRAME":"TEME","BSTAR":"0.00320110000000","MEAN_MOTION_DDOT":"0.0000000000000","FILE":"3798293","MEAN_ANOMALY":"256.4275","ECCENTRICITY":"0.00011420","CLASSIFICATION_TYPE":"U","RA_OF_ASC_NODE":"156.5673","MEAN_MOTION":"15.06449434","GP_ID":"225639620","EPOCH":"2023-02-16T13:39:28.350432","CENTER_NAME":"EARTH","COUNTRY_CODE":"US"},{"OBJECT_ID":"2021-040Y","REV_AT_EPOCH":"9825","OBJECT_NAME":"STARLINK-2660","TLE_LINE2":"2 48450  53.0532 156.5860 0001244  73.8169 286.2956 15.06370526 98254","MEAN_MOTION_DOT":"-0.00004590","OBJECT_TYPE":"PAYLOAD","DECAY_DATE":null,"TIME_SYSTEM":"UTC","ELEMENT_SET_NO":"999","RCS_SIZE":"LARGE","SEMIMAJOR_AXIS":"6925.439","NORAD_CAT_ID":"48450","MEAN_ELEMENT_THEORY":"SGP4","INCLINATION":"53.0532","ARG_OF_PERICENTER":"73.8169","EPHEMERIS_TYPE":"0","APOAPSIS":"548.165","PERIOD":"95.594","TLE_LINE1":"1 48450U 21040Y   23047.56544056 -.00004590  00000-0 -28970-3 0  9998","LAUNCH_DATE":"2021-05-09","COUNTRY_CODE":"US","MEAN_MOTION":"15.06370526","GP_ID":"225638372","CENTER_NAME":"EARTH","EPOCH":"2023-02-16T13:34:14.064384","MEAN_ANOMALY":"286.2956","CLASSIFICATION_TYPE":"U","ECCENTRICITY":"0.00012440","RA_OF_ASC_NODE":"156.5860","FILE":"3798293","REF_FRAME":"TEME","BSTAR":"-0.00028970000000","MEAN_MOTION_DDOT":"0.0000000000000","PERIAPSIS":"546.442","SITE":"AFETR"},{"COUNTRY_CODE":"US","RA_OF_ASC_NODE":"155.7274","MEAN_ANOMALY":"280.7497","CLASSIFICATION_TYPE":"U","ECCENTRICITY":"0.00011510","EPOCH":"2023-02-16T18:19:25.466016","CENTER_NAME":"EARTH","MEAN_MOTION":"15.06464152","GP_ID":"225683639","BSTAR":"0.00168440000000","MEAN_MOTION_DDOT":"0.0000000000000","REF_FRAME":"TEME","FILE":"3799178","SITE":"AFETR","PERIAPSIS":"546.220","TLE_LINE2":"2 48451  53.0500 155.7274 0001151  79.3621 280.7497 15.06464152 98282","MEAN_MOTION_DOT":"0.00024940","OBJECT_NAME":"STARLINK-2652","REV_AT_EPOCH":"9828","OBJECT_ID":"2021-040Z","RCS_SIZE":"LARGE","TIME_SYSTEM":"UTC","ELEMENT_SET_NO":"999","DECAY_DATE":null,"OBJECT_TYPE":"PAYLOAD","INCLINATION":"53.0500","ARG_OF_PERICENTER":"79.3621","NORAD_CAT_ID":"48451","SEMIMAJOR_AXIS":"6925.152","MEAN_ELEMENT_THEORY":"SGP4","LAUNCH_DATE":"2021-05-09","TLE_LINE1":"1 48451U 21040Z   23047.76348919  .00024940  00000-0  16844-2 0  9996","APOAPSIS":"547.814","PERIOD":"95.588","EPHEMERIS_TYPE":"0"},{"CENTER_NAME":"EARTH","EPOCH":"2023-02-16T13:28:51.156480","GP_ID":"225639373","MEAN_MOTION":"15.06424528","RA_OF_ASC_NODE":"156.5763","CLASSIFICATION_TYPE":"U","ECCENTRICITY":"0.00012330","MEAN_ANOMALY":"276.2969","COUNTRY_CODE":"US","SITE":"AFETR","PERIAPSIS":"546.284","FILE":"3798293","MEAN_MOTION_DDOT":"0.0000000000000","BSTAR":"0.00065551000000","REF_FRAME":"TEME","DECAY_DATE":null,"OBJECT_TYPE":"PAYLOAD","RCS_SIZE":"LARGE","ELEMENT_SET_NO":"999","TIME_SYSTEM":"UTC","REV_AT_EPOCH":"9825","OBJECT_NAME":"STARLINK-2703","OBJECT_ID":"2021-040AA","MEAN_MOTION_DOT":"0.00009502","TLE_LINE2":"2 48452  53.0496 156.5763 0001233  83.8160 276.2969 15.06424528 98252","PERIOD":"95.591","APOAPSIS":"547.992","EPHEMERIS_TYPE":"0","LAUNCH_DATE":"2021-05-09","TLE_LINE1":"1 48452U 21040AA  23047.56170320  .00009502  00000-0  65551-3 0  9991","NORAD_CAT_ID":"48452","SEMIMAJOR_AXIS":"6925.273","MEAN_ELEMENT_THEORY":"SGP4","ARG_OF_PERICENTER":"83.8160","INCLINATION":"53.0496"},{"FILE":"3799178","REF_FRAME":"TEME","BSTAR":"0.00159160000000","MEAN_MOTION_DDOT":"0.0000000000000","PERIAPSIS":"545.872","SITE":"AFETR","COUNTRY_CODE":"US","MEAN_MOTION":"15.06433731","GP_ID":"225684641","EPOCH":"2023-02-16T16:34:37.533216","CENTER_NAME":"EARTH","MEAN_ANOMALY":"278.1440","ECCENTRICITY":"0.00017880","CLASSIFICATION_TYPE":"U","RA_OF_ASC_NODE":"156.0241","NORAD_CAT_ID":"48453","SEMIMAJOR_AXIS":"6925.245","MEAN_ELEMENT_THEORY":"SGP4","INCLINATION":"53.0505","ARG_OF_PERICENTER":"81.9752","EPHEMERIS_TYPE":"0","APOAPSIS":"548.348","PERIOD":"95.590","TLE_LINE1":"1 48453U 21040AB  23047.69071219  .00023527  00000-0  15916-2 0  9995","LAUNCH_DATE":"2021-05-09","OBJECT_ID":"2021-040AB","OBJECT_NAME":"STARLINK-2620","REV_AT_EPOCH":"9827","TLE_LINE2":"2 48453  53.0505 156.0241 0001788  81.9752 278.1440 15.06433731 98274","MEAN_MOTION_DOT":"0.00023527","OBJECT_TYPE":"PAYLOAD","DECAY_DATE":null,"TIME_SYSTEM":"UTC","ELEMENT_SET_NO":"999","RCS_SIZE":"LARGE"},{"MEAN_MOTION_DOT":"0.00014852","TLE_LINE2":"2 48454  53.0534 156.6301 0001252  90.2471 269.8661 15.06365917 98257","OBJECT_ID":"2021-040AC","OBJECT_NAME":"STARLINK-2654","REV_AT_EPOCH":"9825","ELEMENT_SET_NO":"999","TIME_SYSTEM":"UTC","RCS_SIZE":"LARGE","OBJECT_TYPE":"PAYLOAD","DECAY_DATE":null,"INCLINATION":"53.0534","ARG_OF_PERICENTER":"90.2471","NORAD_CAT_ID":"48454","SEMIMAJOR_AXIS":"6925.453","MEAN_ELEMENT_THEORY":"SGP4","TLE_LINE1":"1 48454U 21040AC  23047.55439175  .00014852  00000-0  10148-2 0  9993","LAUNCH_DATE":"2021-05-09","EPHEMERIS_TYPE":"0","PERIOD":"95.594","APOAPSIS":"548.185","COUNTRY_CODE":"US","CLASSIFICATION_TYPE":"U","ECCENTRICITY":"0.00012520","MEAN_ANOMALY":"269.8661","RA_OF_ASC_NODE":"156.6301","GP_ID":"225638872","MEAN_MOTION":"15.06365917","EPOCH":"2023-02-16T13:18:19.447200","CENTER_NAME":"EARTH","REF_FRAME":"TEME","MEAN_MOTION_DDOT":"0.0000000000000","BSTAR":"0.00101480000000","FILE":"3798293","PERIAPSIS":"546.451","SITE":"AFETR"},{"OBJECT_NAME":"STARLINK-2497","REV_AT_EPOCH":"9828","OBJECT_ID":"2021-040AD","TLE_LINE2":"2 48455  53.0520 155.4592 0000946  44.9261 315.1804 15.06349658 98285","MEAN_MOTION_DOT":"0.00042938","DECAY_DATE":null,"OBJECT_TYPE":"PAYLOAD","RCS_SIZE":"LARGE","TIME_SYSTEM":"UTC","ELEMENT_SET_NO":"999","MEAN_ELEMENT_THEORY":"SGP4","SEMIMAJOR_AXIS":"6925.503","NORAD_CAT_ID":"48455","ARG_OF_PERICENTER":"44.9261","INCLINATION":"53.0520","APOAPSIS":"548.023","PERIOD":"95.595","EPHEMERIS_TYPE":"0","LAUNCH_DATE":"2021-05-09","TLE_LINE1":"1 48455U 21040AD  23047.81605501  .00042938  00000-0  28879-2 0  9997","COUNTRY_CODE":"US","EPOCH":"2023-02-16T19:35:07.152864","CENTER_NAME":"EARTH","MEAN_MOTION":"15.06349658","GP_ID":"225684140","RA_OF_ASC_NODE":"155.4592","MEAN_ANOMALY":"315.1804","CLASSIFICATION_TYPE":"U","ECCENTRICITY":"0.00009460","FILE":"3799178","BSTAR":"0.00288790000000","MEAN_MOTION_DDOT":"0.0000000000000","REF_FRAME":"TEME","SITE":"AFETR","PERIAPSIS":"546.713"},{"OBJECT_NAME":"STARLINK-2508","REV_AT_EPOCH":"9828","OBJECT_ID":"2021-040AE","TLE_LINE2":"2 48456  53.0511 155.4765 0001085  65.6768 294.4334 15.06389499 98289","MEAN_MOTION_DOT":"0.00057640","DECAY_DATE":null,"OBJECT_TYPE":"PAYLOAD","RCS_SIZE":"LARGE","TIME_SYSTEM":"UTC","ELEMENT_SET_NO":"999","SEMIMAJOR_AXIS":"6925.381","NORAD_CAT_ID":"48456","MEAN_ELEMENT_THEORY":"SGP4","INCLINATION":"53.0511","ARG_OF_PERICENTER":"65.6768","APOAPSIS":"547.997","PERIOD":"95.593","EPHEMERIS_TYPE":"0","LAUNCH_DATE":"2021-05-09","TLE_LINE1":"1 48456U 21040AE  23047.81236295  .00057640  00000-0  38581-2 0  9995","COUNTRY_CODE":"US","CENTER_NAME":"EARTH","EPOCH":"2023-02-16T19:29:48.158880","MEAN_MOTION":"15.06389499","GP_ID":"225683890","RA_OF_ASC_NODE":"155.4765","MEAN_ANOMALY":"294.4334","ECCENTRICITY":"0.00010850","CLASSIFICATION_TYPE":"U","FILE":"3799178","BSTAR":"0.00385810000000","MEAN_MOTION_DDOT":"0.0000000000000","REF_FRAME":"TEME","SITE":"AFETR","PERIAPSIS":"546.494"},{"COUNTRY_CODE":"US","CLASSIFICATION_TYPE":"U","ECCENTRICITY":"0.00017640","MEAN_ANOMALY":"292.7964","RA_OF_ASC_NODE":"161.1012","GP_ID":"225685142","MEAN_MOTION":"15.06416535","EPOCH":"2023-02-16T16:36:37.328544","CENTER_NAME":"EARTH","REF_FRAME":"TEME","MEAN_MOTION_DDOT":"0.0000000000000","BSTAR":"0.00024377000000","FILE":"3799178","PERIAPSIS":"545.941","SITE":"AFETR","MEAN_MOTION_DOT":"0.00003353","TLE_LINE2":"2 48458  53.0536 161.1012 0001764  67.3211 292.7964 15.06416535 98915","OBJECT_ID":"2021-040AG","OBJECT_NAME":"STARLINK-2698","REV_AT_EPOCH":"9891","ELEMENT_SET_NO":"999","TIME_SYSTEM":"UTC","RCS_SIZE":"LARGE","OBJECT_TYPE":"PAYLOAD","DECAY_DATE":null,"ARG_OF_PERICENTER":"67.3211","INCLINATION":"53.0536","NORAD_CAT_ID":"48458","SEMIMAJOR_AXIS":"6925.298","MEAN_ELEMENT_THEORY":"SGP4","TLE_LINE1":"1 48458U 21040AG  23047.69209871  .00003353  00000-0  24377-3 0  9994","LAUNCH_DATE":"2021-05-09","EPHEMERIS_TYPE":"0","PERIOD":"95.591","APOAPSIS":"548.385"}];
